[{"OBJECT_NAME":"SAUDICOMSAT 3","OBJECT_ID":"2007-012J","EPOCH":"2026-03-09T21:56:33.601056","MEAN_MOTION":14.70526386,"ECCENTRICITY":0.0039477,"INCLINATION":98.305,"RA_OF_ASC_NODE":42.4048,"ARG_OF_PERICENTER":7.9063,"MEAN_ANOMALY":352.2756,"EPHEMERIS_TYPE":0,"CLASSIFICATION_TYPE":"U","NORAD_CAT_ID":31125,"ELEMENT_SET_NO":999,"REV_AT_EPOCH":1023,"BSTAR":0.00027068217,"MEAN_MOTION_DOT":1.608e-5,"MEAN_MOTION_DDOT":0},{"OBJECT_NAME":"CZ-4C DEB","OBJECT_ID":"2010-038D","EPOCH":"2026-03-09T01:12:27.235872","MEAN_MOTION":14.75804828,"ECCENTRICITY":0.01202328,"INCLINATION":97.9532,"RA_OF_ASC_NODE":164.702,"ARG_OF_PERICENTER":229.9203,"MEAN_ANOMALY":129.1417,"EPHEMERIS_TYPE":0,"CLASSIFICATION_TYPE":"U","NORAD_CAT_ID":37568,"ELEMENT_SET_NO":999,"REV_AT_EPOCH":82101,"BSTAR":0.0014631198,"MEAN_MOTION_DOT":0.00011242,"MEAN_MOTION_DDOT":0}]
